{"type": "FeatureCollection", "features": [ {"type": "Feature", "properties": {"norad_id": 41836, "name": "HIMAWARI-9", "group": "weather", "lat": -0.0028349911138847734, "lon": 146.56615915105564, "alt_km": 35796.34667950432, "timestamp": "2025-12-02T19:35:50.205252+00:00", "meta": {"OBJECT_NAME": "HIMAWARI-9", "OBJECT_ID": "2016-064A", "EPOCH": "2025-12-02T11:21:38.666880", "MEAN_MOTION": 1.00267593, "ECCENTRICITY": 0.0002385, "INCLINATION": 0.0198, "RA_OF_ASC_NODE": 328.7015, "ARG_OF_PERICENTER": 332.4974, "MEAN_ANOMALY": 81.5255, "EPHEMERIS_TYPE": 0, "CLASSIFICATION_TYPE": "U", "NORAD_CAT_ID": 41836, "ELEMENT_SET_NO": 999, "REV_AT_EPOCH": 3323, "BSTAR": 0, "MEAN_MOTION_DOT": 0, "MEAN_MOTION_DDOT": 0}, "tle": {"line1": "1 41836U 16064A   25336.47336420  .00000000  00000+0  00000+0 0  9995", "line2": "2 41836   0.0198 328.7015 0002385 332.4974  81.5255  1.00267593 33238"}}, "geometry": {"type": "Point", "coordinates": [146.56615915105564, -0.0028349911138847734]}}, {"type": "Feature", "properties": {"norad_id": 41866, "name": "GOES 16", "group": "weather", "lat": -0.009151565174143908, "lon": -98.81872279334715, "alt_km": 35772.18499698223, "timestamp": "2025-12-02T19:35:50.205264+00:00", "meta": {"OBJECT_NAME": "GOES 16", "OBJECT_ID": "2016-071A", "EPOCH": "2025-12-02T09:32:38.891040", "MEAN_MOTION": 1.00270605, "ECCENTRICITY": 0.0003373, "INCLINATION": 0.0559, "RA_OF_ASC_NODE": 108.1075, "ARG_OF_PERICENTER": 147.9923, "MEAN_ANOMALY": 213.8971, "EPHEMERIS_TYPE": 0, "CLASSIFICATION_TYPE": "U", "NORAD_CAT_ID": 41866, "ELEMENT_SET_NO": 999, "REV_AT_EPOCH": 3313, "BSTAR": 0, "MEAN_MOTION_DOT": -7e-07, "MEAN_MOTION_DDOT": 0}, "tle": {"line1": "1 41866U 16071A   25336.39767235 -.00000070  00000+0  00000+0 0  9997", "line2": "2 41866   0.0559 108.1075 0003373 147.9923 213.8971  1.00270605 33131"}}, "geometry": {"type": "Point", "coordinates": [-98.81872279334715, -0.009151565174143908]}}, {"type": "Feature", "properties": {"norad_id": 41882, "name": "FENGYUN 4A", "group": "weather", "lat": 1.3361454507603496, "lon": 129.489700771673, "alt_km": 35785.63557477009, "timestamp": "2025-12-02T19:35:50.205278+00:00", "meta": {"OBJECT_NAME": "FENGYUN 4A", "OBJECT_ID": "2016-077A", "EPOCH": "2025-12-02T07:31:31.000800", "MEAN_MOTION": 1.00278848, "ECCENTRICITY": 0.0005003, "INCLINATION": 1.8205, "RA_OF_ASC_NODE": 82.4911, "ARG_OF_PERICENTER": 141.2194, "MEAN_ANOMALY": 84.2874, "EPHEMERIS_TYPE": 0, "CLASSIFICATION_TYPE": "U", "NORAD_CAT_ID": 41882, "ELEMENT_SET_NO": 999, "REV_AT_EPOCH": 3295, "BSTAR": 0, "MEAN_MOTION_DOT": -3.36e-06, "MEAN_MOTION_DDOT": 0}, "tle": {"line1": "1 41882U 16077A   25336.31355325 -.00000336  00000+0  00000+0 0  9991", "line2": "2 41882   1.8205  82.4911 0005003 141.2194  84.2874  1.00278848 32956"}}, "geometry": {"type": "Point", "coordinates": [129.489700771673, 1.3361454507603496]}}, {"type": "Feature", "properties": {"norad_id": 41884, "name": "CYGFM05", "group": "weather", "lat": 33.00645792756861, "lon": -179.67259927750828, "alt_km": 412.9934972801775, "timestamp": "2025-12-02T19:35:50.205290+00:00", "meta": {"OBJECT_NAME": "CYGFM05", "OBJECT_ID": "2016-078A", "EPOCH": "2025-12-02T11:32:39.880032", "MEAN_MOTION": 15.47053382, "ECCENTRICITY": 0.0009422, "INCLINATION": 34.9578, "RA_OF_ASC_NODE": 114.114, "ARG_OF_PERICENTER": 84.3374, "MEAN_ANOMALY": 275.8422, "EPHEMERIS_TYPE": 0, "CLASSIFICATION_TYPE": "U", "NORAD_CAT_ID": 41884, "ELEMENT_SET_NO": 999, "REV_AT_EPOCH": 49817, "BSTAR": 0.00043635, "MEAN_MOTION_DOT": 0.00022801, "MEAN_MOTION_DDOT": 0}, "tle": {"line1": "1 41884U 16078A   25336.48101713  .00022801  00000+0  43635-3 0  9997", "line2": "2 41884  34.9578 114.1140 0009422  84.3374 275.8422 15.47053382498178"}}, "geometry": {"type": "Point", "coordinates": [-179.67259927750828, 33.00645792756861]}}, {"type": "Feature", "properties": {"norad_id": 41885, "name": "CYGFM04", "group": "weather", "lat": -19.22037066490653, "lon": -63.05167229252021, "alt_km": 419.2978115057067, "timestamp": "2025-12-02T19:35:50.205301+00:00", "meta": {"OBJECT_NAME": "CYGFM04", "OBJECT_ID": "2016-078B", "EPOCH": "2025-12-02T10:56:40.034688", "MEAN_MOTION": 15.49676535, "ECCENTRICITY": 0.0008456, "INCLINATION": 34.9338, "RA_OF_ASC_NODE": 89.3454, "ARG_OF_PERICENTER": 113.8373, "MEAN_ANOMALY": 246.3236, "EPHEMERIS_TYPE": 0, "CLASSIFICATION_TYPE": "U", "NORAD_CAT_ID": 41885, "ELEMENT_SET_NO": 999, "REV_AT_EPOCH": 49834, "BSTAR": 0.0011812, "MEAN_MOTION_DOT": 0.00068139, "MEAN_MOTION_DDOT": 0}, "tle": {"line1": "1 41885U 16078B   25336.45601892  .00068139  00000+0  11812-2 0  9993", "line2": "2 41885  34.9338  89.3454 0008456 113.8373 246.3236 15.49676535498345"}}, "geometry": {"type": "Point", "coordinates": [-63.05167229252021, -19.22037066490653]}}, {"type": "Feature", "properties": {"norad_id": 41886, "name": "CYGFM02", "group": "weather", "lat": 0.30377405341010755, "lon": -94.99928544744894, "alt_km": 409.2684733952865, "timestamp": "2025-12-02T19:35:50.205312+00:00", "meta": {"OBJECT_NAME": "CYGFM02", "OBJECT_ID": "2016-078C", "EPOCH": "2025-12-02T11:06:18.343584", "MEAN_MOTION": 15.51041432, "ECCENTRICITY": 0.0010174, "INCLINATION": 34.9427, "RA_OF_ASC_NODE": 87.7595, "ARG_OF_PERICENTER": 113.6681, "MEAN_ANOMALY": 246.511, "EPHEMERIS_TYPE": 0, "CLASSIFICATION_TYPE": "U", "NORAD_CAT_ID": 41886, "ELEMENT_SET_NO": 999, "REV_AT_EPOCH": 49847, "BSTAR": 0.00046713, "MEAN_MOTION_DOT": 0.00028135, "MEAN_MOTION_DDOT": 0}, "tle": {"line1": "1 41886U 16078C   25336.46271231  .00028135  00000+0  46713-3 0  9996", "line2": "2 41886  34.9427  87.7595 0010174 113.6681 246.5110 15.51041432498475"}}, "geometry": {"type": "Point", "coordinates": [-94.99928544744894, 0.30377405341010755]}}, {"type": "Feature", "properties": {"norad_id": 41887, "name": "CYGFM01", "group": "weather", "lat": 34.71778359194909, "lon": -148.6085086962838, "alt_km": 411.3477250607739, "timestamp": "2025-12-02T19:35:50.205323+00:00", "meta": {"OBJECT_NAME": "CYGFM01", "OBJECT_ID": "2016-078D", "EPOCH": "2025-12-02T11:26:43.766016", "MEAN_MOTION": 15.4761582, "ECCENTRICITY": 0.0009082, "INCLINATION": 34.9407, "RA_OF_ASC_NODE": 116.5624, "ARG_OF_PERICENTER": 75.2425, "MEAN_ANOMALY": 284.9302, "EPHEMERIS_TYPE": 0, "CLASSIFICATION_TYPE": "U", "NORAD_CAT_ID": 41887, "ELEMENT_SET_NO": 999, "REV_AT_EPOCH": 49811, "BSTAR": 0.00044968, "MEAN_MOTION_DOT": 0.00023967, "MEAN_MOTION_DDOT": 0}, "tle": {"line1": "1 41887U 16078D   25336.47689544  .00023967  00000+0  44968-3 0  9996", "line2": "2 41887  34.9407 116.5624 0009082  75.2425 284.9302 15.47615820498116"}}, "geometry": {"type": "Point", "coordinates": [-148.6085086962838, 34.71778359194909]}}, {"type": "Feature", "properties": {"norad_id": 41888, "name": "CYGFM08", "group": "weather", "lat": 34.129396391268, "lon": -158.64696606354593, "alt_km": 406.6783430424275, "timestamp": "2025-12-02T19:35:50.205334+00:00", "meta": {"OBJECT_NAME": "CYGFM08", "OBJECT_ID": "2016-078E", "EPOCH": "2025-12-02T11:25:37.884288", "MEAN_MOTION": 15.4878828, "ECCENTRICITY": 0.0010648, "INCLINATION": 34.9443, "RA_OF_ASC_NODE": 99.6762, "ARG_OF_PERICENTER": 101.7862, "MEAN_ANOMALY": 258.4054, "EPHEMERIS_TYPE": 0, "CLASSIFICATION_TYPE": "U", "NORAD_CAT_ID": 41888, "ELEMENT_SET_NO": 999, "REV_AT_EPOCH": 49834, "BSTAR": 0.00045423, "MEAN_MOTION_DOT": 0.00025246, "MEAN_MOTION_DDOT": 0}, "tle": {"line1": "1 41888U 16078E   25336.47613292  .00025246  00000+0  45423-3 0  9993", "line2": "2 41888  34.9443  99.6762 0010648 101.7862 258.4054 15.48788280498348"}}, "geometry": {"type": "Point", "coordinates": [-158.64696606354593, 34.129396391268]}}, {"type": "Feature", "properties": {"norad_id": 41890, "name": "CYGFM07", "group": "weather", "lat": 32.17352952388703, "lon": 150.75497661370738, "alt_km": 409.07078839888254, "timestamp": "2025-12-02T19:35:50.205345+00:00", "meta": {"OBJECT_NAME": "CYGFM07", "OBJECT_ID": "2016-078G", "EPOCH": "2025-12-02T11:34:17.333184", "MEAN_MOTION": 15.49360249, "ECCENTRICITY": 0.0008905, "INCLINATION": 34.9468, "RA_OF_ASC_NODE": 88.675, "ARG_OF_PERICENTER": 120.3689, "MEAN_ANOMALY": 239.7914, "EPHEMERIS_TYPE": 0, "CLASSIFICATION_TYPE": "U", "NORAD_CAT_ID": 41890, "ELEMENT_SET_NO": 999, "REV_AT_EPOCH": 49836, "BSTAR": 0.00046041, "MEAN_MOTION_DOT": 0.00026098, "MEAN_MOTION_DDOT": 0}, "tle": {"line1": "1 41890U 16078G   25336.48214506  .00026098  00000+0  46041-3 0  9995", "line2": "2 41890  34.9468  88.6750 0008905 120.3689 239.7914 15.49360249498361"}}, "geometry": {"type": "Point", "coordinates": [150.75497661370738, 32.17352952388703]}}, {"type": "Feature", "properties": {"norad_id": 41891, "name": "CYGFM03", "group": "weather", "lat": -34.86073204923278, "lon": -5.488954640178978, "alt_km": 426.08035468912567, "timestamp": "2025-12-02T19:35:50.205363+00:00", "meta": {"OBJECT_NAME": "CYGFM03", "OBJECT_ID": "2016-078H", "EPOCH": "2025-12-02T10:43:10.051104", "MEAN_MOTION": 15.49261535, "ECCENTRICITY": 0.0008261, "INCLINATION": 34.9418, "RA_OF_ASC_NODE": 90.819, "ARG_OF_PERICENTER": 106.7096, "MEAN_ANOMALY": 253.4533, "EPHEMERIS_TYPE": 0, "CLASSIFICATION_TYPE": "U", "NORAD_CAT_ID": 41891, "ELEMENT_SET_NO": 999, "REV_AT_EPOCH": 49833, "BSTAR": 0.0004579, "MEAN_MOTION_DOT": 0.00025858, "MEAN_MOTION_DDOT": 0}, "tle": {"line1": "1 41891U 16078H   25336.44664411  .00025858  00000+0  45790-3 0  9999", "line2": "2 41891  34.9418  90.8190 0008261 106.7096 253.4533 15.49261535498330"}}, "geometry": {"type": "Point", "coordinates": [-5.488954640178978, -34.86073204923278]}}]}